OBJECT_NAME,OBJECT_ID,EPOCH,MEAN_MOTION,ECCENTRICITY,INCLINATION,RA_OF_ASC_NODE,ARG_OF_PERICENTER,MEAN_ANOMALY,EPHEMERIS_TYPE,CLASSIFICATION_TYPE,NORAD_CAT_ID,ELEMENT_SET_NO,REV_AT_EPOCH,BSTAR,MEAN_MOTION_DOT,MEAN_MOTION_DDOT
STARLINK-30512,2023-151N,2026-06-18T07:00:50.530464,15.27566001,.00013114,43.0006,127.6704,251.5772,108.4937,0,U,57976,999,15115,.12787232E-4,.9E-6,0
STARLINK-30509,2023-151P,2026-06-18T06:06:34.715808,15.27594353,.0001406,43.0041,142.7364,263.9573,96.1118,0,U,57977,999,15097,.14858763E-3,.3831E-4,0
STARLINK-30511,2023-151Q,2026-06-18T07:50:00.671424,15.27580300,.00015316,43.0017,142.4125,264.2610,95.8067,0,U,57978,999,15098,.85839792E-4,.2101E-4,0
STARLINK-30508,2023-151R,2026-06-18T07:55:32.898432,15.27578932,.00015538,43.0038,142.4349,278.1555,81.9120,0,U,57979,999,15098,-.11193611E-4,-.57E-5,0
STARLINK-30510,2023-151T,2026-06-18T07:23:23.099136,15.27575344,.00003995,43.0027,145.6753,261.2149,98.8657,0,U,57981,999,15094,.72684263E-4,.1739E-4,0
STARLINK-30507,2023-151U,2026-06-18T07:28:56.051904,15.27571002,.00010589,43.0014,145.7076,256.1310,103.9424,0,U,57982,999,15093,-.91647346E-4,-.2782E-4,0
STARLINK-30515,2023-151V,2026-06-18T09:08:39.148224,15.27566807,.0001208,43.0009,145.3628,285.8178,74.2540,0,U,57983,999,15094,-.28635951E-4,-.105E-4,0
STARLINK-30516,2023-151W,2026-06-18T09:14:11.328576,15.27585206,.00028495,43.0071,145.3968,274.6662,85.3864,0,U,57984,999,15095,.74616018E-4,.1791E-4,0
STARLINK-30519,2023-151X,2026-06-18T08:02:57.124032,15.27576777,.0001326,43.0021,142.4736,265.0474,95.0226,0,U,57985,999,15092,.22634852E-4,.361E-5,0
YAOGAN-39 03A,2023-152A,2026-06-18T15:16:52.893120,15.22888064,.00040412,35.0005,263.3951,183.2039,176.8650,0,U,57986,999,15066,.13637047E-3,.3239E-4,0
YAOGAN-39 03B,2023-152C,2026-06-17T01:35:47.989824,15.18039956,.00197174,34.9911,296.8710,230.4272,129.4699,0,U,57988,999,15017,.27818471E-3,.5794E-4,0
YAOGAN-39 03C,2023-152E,2026-06-17T01:30:01.117152,15.18045951,.00092731,34.9910,296.8097,142.4571,217.6790,0,U,57990,999,15014,.25116528E-3,.5207E-4,0
STARLINK-30537,2023-153A,2026-06-18T10:13:09.609024,15.27595369,.00015372,42.9969,218.0712,271.6369,88.4307,0,U,57991,999,15020,.11917754E-3,.302E-4,0
STARLINK-30534,2023-153B,2026-06-18T09:52:49.789632,15.27578080,.00022838,43.0009,217.9634,282.1909,77.8686,0,U,57992,999,15020,.16808511E-4,.2E-5,0
STARLINK-30536,2023-153C,2026-06-18T11:52:53.564160,15.27577010,.00013878,43.0009,217.7295,274.0075,86.0618,0,U,57993,999,15031,.16532657E-4,.193E-5,0
STARLINK-30538,2023-153D,2026-06-18T12:03:59.486112,15.27576125,.00011961,42.9995,217.7816,271.7131,88.3584,0,U,57994,999,15021,-.11941126E-4,-.591E-5,0
STARLINK-30517,2023-153E,2026-06-18T10:50:13.106976,15.27570474,.00019366,43.0045,218.2585,271.1363,88.9267,0,U,57995,999,15030,.16005582E-4,.178E-5,0
STARLINK-30523,2023-153G,2026-06-18T11:58:26.708736,15.27575763,.00011236,43.0036,217.7578,279.6268,80.4457,0,U,57997,999,15031,.28099E-6,-.254E-5,0
STARLINK-30531,2023-153H,2026-06-18T11:43:38.506368,15.27576105,.00012538,43.0015,217.6793,274.2203,85.8506,0,U,57998,999,15031,-.2008612E-5,-.317E-5,0
STARLINK-30552,2023-153J,2026-06-18T12:40:59.966112,15.27578171,.00023742,43.0033,217.9791,282.6684,77.3902,0,U,57999,999,15031,.36812488E-4,.751E-5,0
STARLINK-30545,2023-153K,2026-06-16T10:33:19.845792,15.27581637,.00019893,43.0118,228.9716,279.2105,80.8522,0,U,58000,999,15000,.41907976E-4,.891E-5,0
STARLINK-30535,2023-153L,2026-06-18T09:43:34.822560,15.27577139,.00017477,43.0020,217.9121,266.2759,93.7892,0,U,58001,999,15030,.15629609E-4,.168E-5,0
STARLINK-30540,2023-153M,2026-06-18T11:32:32.159328,15.27577959,.00008268,43.0039,217.6078,254.2654,105.8106,0,U,58002,999,15021,.17243989E-4,.213E-5,0
STARLINK-30539,2023-153P,2026-06-18T09:54:40.749696,15.27582248,.00015743,43.0048,217.9740,280.2068,79.8607,0,U,58004,999,15029,.27257807E-4,.488E-5,0
STARLINK-30530,2023-153Q,2026-06-18T10:05:46.405536,15.27598638,.00003959,43.0031,218.0222,183.4004,176.6845,0,U,58005,999,15030,.12924589E-3,.3298E-4,0
STARLINK-30526,2023-153R,2026-06-18T08:35:27.333600,15.31100910,.00022633,43.0014,192.3845,75.4279,284.6825,0,U,58006,999,15059,.19403762E-3,.5684E-4,0
STARLINK-30527,2023-153S,2026-06-18T12:59:58.456320,15.27571107,.00010273,43.0017,348.8220,262.5926,97.4809,0,U,58007,999,15288,-.17174249E-4,-.734E-5,0
STARLINK-30522,2023-153T,2026-06-18T04:39:06.942240,15.27575700,.00016702,43.0052,219.7511,273.5743,86.4917,0,U,58008,999,15026,.15559252E-4,.166E-5,0
STARLINK-30486,2023-153U,2026-06-18T10:00:13.449312,15.27580369,.00015135,43.0010,217.9891,271.6729,88.3950,0,U,58009,999,15020,.37561151E-4,.772E-5,0
STARLINK-30520,2023-153V,2026-06-18T10:15:01.916928,15.27579885,.00011864,43.0021,218.0571,262.9143,97.1574,0,U,58010,999,15020,.2824367E-4,.515E-5,0
