STARLINK-30512          
1 57976U 23151N   26169.29225151  .00000090  00000+0  12787-4 0  9994
2 57976  43.0006 127.6704 0001311 251.5772 108.4937 15.27566001151159
STARLINK-30509          
1 57977U 23151P   26169.25456847  .00003831  00000+0  14859-3 0  9996
2 57977  43.0041 142.7364 0001406 263.9573  96.1118 15.27594353150974
STARLINK-30511          
1 57978U 23151Q   26169.32639666  .00002101  00000+0  85840-4 0  9995
2 57978  43.0017 142.4125 0001531 264.2610  95.8067 15.27580300150982
STARLINK-30508          
1 57979U 23151R   26169.33024188 -.00000570  00000+0 -11194-4 0  9995
2 57979  43.0038 142.4349 0001553 278.1555  81.9120 15.27578932150984
STARLINK-30510          
1 57981U 23151T   26169.30790624  .00001739  00000+0  72684-4 0  9997
2 57981  43.0027 145.6753 0000399 261.2149  98.8657 15.27575344150940
STARLINK-30507          
1 57982U 23151U   26169.31175986 -.00002782  00000+0 -91647-4 0  9998
2 57982  43.0014 145.7076 0001058 256.1310 103.9424 15.27571002150938
STARLINK-30515          
1 57983U 23151V   26169.38100866 -.00001050  00000+0 -28636-4 0  9996
2 57983  43.0009 145.3628 0001208 285.8178  74.2540 15.27566807150947
STARLINK-30516          
1 57984U 23151W   26169.38485334  .00001791  00000+0  74616-4 0  9992
2 57984  43.0071 145.3968 0002849 274.6662  85.3864 15.27585206150957
STARLINK-30519          
1 57985U 23151X   26169.33538338  .00000361  00000+0  22635-4 0  9997
2 57985  43.0021 142.4736 0001326 265.0474  95.0226 15.27576777150928
YAOGAN-39 03A           
1 57986U 23152A   26169.63672330  .00003239  00000+0  13637-3 0  9991
2 57986  35.0005 263.3951 0004041 183.2039 176.8650 15.22888064150669
YAOGAN-39 03B           
1 57988U 23152C   26168.06652766  .00005794  00000+0  27818-3 0  9994
2 57988  34.9911 296.8710 0019717 230.4272 129.4699 15.18039956150175
YAOGAN-39 03C           
1 57990U 23152E   26168.06251293  .00005207  00000+0  25117-3 0  9996
2 57990  34.9910 296.8097 0009273 142.4571 217.6790 15.18045951150146
STARLINK-30537          
1 57991U 23153A   26169.42580566  .00003020  00000+0  11918-3 0  9992
2 57991  42.9969 218.0712 0001537 271.6369  88.4307 15.27595369150203
STARLINK-30534          
1 57992U 23153B   26169.41168738  .00000200  00000+0  16809-4 0  9997
2 57992  43.0009 217.9634 0002283 282.1909  77.8686 15.27578080150201
STARLINK-30536          
1 57993U 23153C   26169.49506440  .00000193  00000+0  16533-4 0  9997
2 57993  43.0009 217.7295 0001387 274.0075  86.0618 15.27577010150312
STARLINK-30538          
1 57994U 23153D   26169.50277183 -.00000591  00000+0 -11941-4 0  9991
2 57994  42.9995 217.7816 0001196 271.7131  88.3584 15.27576125150211
STARLINK-30517          
1 57995U 23153E   26169.45154059  .00000178  00000+0  16006-4 0  9998
2 57995  43.0045 218.2585 0001936 271.1363  88.9267 15.27570474150307
STARLINK-30523          
1 57997U 23153G   26169.49892024 -.00000254  00000+0  28099-6 0  9998
2 57997  43.0036 217.7578 0001123 279.6268  80.4457 15.27575763150315
STARLINK-30531          
1 57998U 23153H   26169.48864012 -.00000317  00000+0 -20086-5 0  9992
2 57998  43.0015 217.6793 0001253 274.2203  85.8506 15.27576105150310
STARLINK-30552          
1 57999U 23153J   26169.52847183  .00000751  00000+0  36812-4 0  9991
2 57999  43.0033 217.9791 0002374 282.6684  77.3902 15.27578171150314
STARLINK-30545          
1 58000U 23153K   26167.43981303  .00000891  00000+0  41908-4 0  9993
2 58000  43.0118 228.9716 0001989 279.2105  80.8522 15.27581637150006
STARLINK-30535          
1 58001U 23153L   26169.40526415  .00000168  00000+0  15630-4 0  9992
2 58001  43.0020 217.9121 0001747 266.2759  93.7892 15.27577139150308
STARLINK-30540          
1 58002U 23153M   26169.48092777  .00000213  00000+0  17244-4 0  9994
2 58002  43.0039 217.6078 0000826 254.2654 105.8106 15.27577959150218
STARLINK-30539          
1 58004U 23153P   26169.41297164  .00000488  00000+0  27258-4 0  9996
2 58004  43.0048 217.9740 0001574 280.2068  79.8607 15.27582248150299
STARLINK-30530          
1 58005U 23153Q   26169.42067599  .00003298  00000+0  12925-3 0  9991
2 58005  43.0031 218.0222 0000395 183.4004 176.6845 15.27598638150305
STARLINK-30526          
1 58006U 23153R   26169.35795525  .00005684  00000+0  19404-3 0  9991
2 58006  43.0014 192.3845 0002263  75.4279 284.6825 15.31100910150598
STARLINK-30527          
1 58007U 23153S   26169.54164880 -.00000734  00000+0 -17174-4 0  9993
2 58007  43.0017 348.8220 0001027 262.5926  97.4809 15.27571107152883
STARLINK-30522          
1 58008U 23153T   26169.19383035  .00000166  00000+0  15559-4 0  9992
2 58008  43.0052 219.7511 0001670 273.5743  86.4917 15.27575700150266
STARLINK-30486          
1 58009U 23153U   26169.41682233  .00000772  00000+0  37561-4 0  9990
2 58009  43.0010 217.9891 0001513 271.6729  88.3950 15.27580369150200
STARLINK-30520          
1 58010U 23153V   26169.42710552  .00000515  00000+0  28244-4 0  9992
2 58010  43.0021 218.0571 0001186 262.9143  97.1574 15.27579885150201
